     3.00           N: GNSS NAV DATA    M: Mixed            RINEX VERSION / TYPE
                                        20201102 075716 UTC PGM / RUN BY / DATE 
                                                            END OF HEADER       
E12 2020  9 17  7  0  0  .560149690136E-02 -.188578042071E-10  .000000000000E+00
      .106000000000E+03  .185375000000E+03  .291047837596E-08  .292913477840E+01
      .863149762154E-05  .137728173286E-03  .737048685551E-05  .544060670090E+04
      .370800000000E+06  .614672899246E-07  .809234820381E+00  .242143869400E-07
      .989267107563E+00  .193218750000E+03  .506674189539E+00 -.568309386653E-08
      .516807241382E-09  .100000000000E+01  .212300000000E+04  .000000000000E+00
      .327670000000E+05  .000000000000E+00 -.128056854010E-07 -.128056854010E-07
      .371482000000E+06  .000000000000E+00
E 4 2020  9 17  7  0  0 -.608762551565E-03 -.771649411035E-11  .000000000000E+00
      .106000000000E+03 -.106875000000E+03  .281761736507E-08  .195012938285E+01
     -.500865280628E-05  .107733532786E-03  .152308493853E-04  .544063886070E+04
      .370800000000E+06 -.186264514923E-07  .291356622280E+01 -.540167093277E-07
      .954670638367E+00  .112187500000E+02 -.634916353283E+00 -.543308345259E-08
     -.287154818294E-09  .100000000000E+01  .212300000000E+04  .000000000000E+00
      .327670000000E+05  .000000000000E+00 -.512227416039E-08 -.558793544769E-08
      .371504000000E+06  .000000000000E+00
E 9 2020  9 17  7  0  0  .592823507031E-02 -.123918653117E-10  .000000000000E+00
      .106000000000E+03 -.113843750000E+03  .256867842434E-08  .612225595642E+00
     -.523775815964E-05  .354058924131E-03  .163577497005E-04  .544064712524E+04
      .370800000000E+06 -.111758708954E-07  .290758759992E+01  .707805156708E-07
      .960631881785E+00 -.144062500000E+02 -.952902514615E-01 -.538022410793E-08
     -.266439669710E-09  .100000000000E+01  .212300000000E+04  .000000000000E+00
      .327670000000E+05  .000000000000E+00 -.465661287308E-09 -.698491930962E-09
      .371504000000E+06  .000000000000E+00
E 1 2020  9 17  7  0  0 -.942485406995E-03 -.794386778580E-11  .000000000000E+00
      .106000000000E+03 -.598125000000E+02  .354193325002E-08  .172919039225E+01
     -.276602804661E-05  .284910085611E-03  .258348882198E-05  .544059954834E+04
      .370800000000E+06 -.651925802231E-07 -.127262820989E+01 -.391155481339E-07
      .980763053586E+00  .299218750000E+03 -.172094682254E+01 -.598489215192E-08
     -.316084594764E-09  .200000000000E+01  .212300000000E+04  .000000000000E+00
      .327670000000E+05  .000000000000E+00 -.186264514923E-08  .000000000000E+00
      .371597000000E+06  .000000000000E+00
E 4 2020  9 17  7  0  0 -.608761794865E-03 -.771649411035E-11  .000000000000E+00
      .106000000000E+03 -.106875000000E+03  .281761736507E-08  .195012938285E+01
     -.500865280628E-05  .107733532786E-03  .152308493853E-04  .544063886070E+04
      .370800000000E+06 -.186264514923E-07  .291356622280E+01 -.540167093277E-07
      .954670638367E+00  .112187500000E+02 -.634916353283E+00 -.543308345259E-08
     -.287154818294E-09  .200000000000E+01  .212300000000E+04  .000000000000E+00
      .327670000000E+05  .000000000000E+00 -.512227416039E-08  .000000000000E+00
      .371597000000E+06  .000000000000E+00
E 9 2020  9 17  7  0  0  .592823547777E-02 -.123918653117E-10  .000000000000E+00
      .106000000000E+03 -.113843750000E+03  .256867842434E-08  .612225595642E+00
     -.523775815964E-05  .354058924131E-03  .163577497005E-04  .544064712524E+04
      .370800000000E+06 -.111758708954E-07  .290758759992E+01  .707805156708E-07
      .960631881785E+00 -.144062500000E+02 -.952902514615E-01 -.538022410793E-08
     -.266439669710E-09  .200000000000E+01  .212300000000E+04  .000000000000E+00
      .327670000000E+05  .000000000000E+00 -.465661287308E-09  .000000000000E+00
      .371597000000E+06  .000000000000E+00
E11 2020  9 17  6 50  0  .556832912844E-02  .274511080534E-09  .000000000000E+00
      .105000000000E+03  .192375000000E+03  .283797535592E-08  .129212381254E+01
      .870972871780E-05  .289389397949E-03  .808574259281E-05  .544060868645E+04
      .370200000000E+06  .447034835815E-07  .809249009224E+00 -.931322574615E-08
      .989253141084E+00  .180093750000E+03  .126442952251E+01 -.566345019115E-08
      .547879964257E-09  .200000000000E+01  .212300000000E+04  .000000000000E+00
      .327670000000E+05  .000000000000E+00 -.155996531248E-07  .000000000000E+00
      .371597000000E+06  .000000000000E+00
E12 2020  9 17  7  0  0  .560149736702E-02 -.188578042071E-10  .000000000000E+00
      .106000000000E+03  .185375000000E+03  .291047837596E-08  .292913477840E+01
      .863149762154E-05  .137728173286E-03  .737048685551E-05  .544060670090E+04
      .370800000000E+06  .614672899246E-07  .809234820381E+00  .242143869400E-07
      .989267107563E+00  .193218750000E+03  .506674189539E+00 -.568309386653E-08
      .516807241382E-09  .200000000000E+01  .212300000000E+04  .000000000000E+00
      .327670000000E+05  .000000000000E+00 -.128056854010E-07  .000000000000E+00
      .371597000000E+06  .000000000000E+00
E 1 2020  9 17  7  0  0 -.942486105487E-03 -.794386778580E-11  .000000000000E+00
      .106000000000E+03 -.598125000000E+02  .354193325002E-08  .172919039225E+01
     -.276602804661E-05  .284910085611E-03  .258348882198E-05  .544059954834E+04
      .370800000000E+06 -.651925802231E-07 -.127262820989E+01 -.391155481339E-07
      .980763053586E+00  .299218750000E+03 -.172094682254E+01 -.598489215192E-08
     -.316084594764E-09  .100000000000E+01  .212300000000E+04  .000000000000E+00
      .327670000000E+05  .000000000000E+00 -.186264514923E-08 -.209547579288E-08
      .371620000000E+06  .000000000000E+00
E 4 2020  9 17  7  0  0 -.608762551565E-03 -.771649411035E-11  .000000000000E+00
      .106000000000E+03 -.106875000000E+03  .281761736507E-08  .195012938285E+01
     -.500865280628E-05  .107733532786E-03  .152308493853E-04  .544063886070E+04
      .370800000000E+06 -.186264514923E-07  .291356622280E+01 -.540167093277E-07
      .954670638367E+00  .112187500000E+02 -.634916353283E+00 -.543308345259E-08
     -.287154818294E-09  .100000000000E+01  .212300000000E+04  .000000000000E+00
      .327670000000E+05  .000000000000E+00 -.512227416039E-08 -.558793544769E-08
      .371620000000E+06  .000000000000E+00
E 9 2020  9 17  7  0  0  .592823507031E-02 -.123918653117E-10  .000000000000E+00
      .106000000000E+03 -.113843750000E+03  .256867842434E-08  .612225595642E+00
     -.523775815964E-05  .354058924131E-03  .163577497005E-04  .544064712524E+04
      .370800000000E+06 -.111758708954E-07  .290758759992E+01  .707805156708E-07
      .960631881785E+00 -.144062500000E+02 -.952902514615E-01 -.538022410793E-08
     -.266439669710E-09  .100000000000E+01  .212300000000E+04  .000000000000E+00
      .327670000000E+05  .000000000000E+00 -.465661287308E-09 -.698491930962E-09
      .371620000000E+06  .000000000000E+00
E11 2020  9 17  6 50  0  .556832738221E-02  .274525291388E-09  .000000000000E+00
      .105000000000E+03  .192375000000E+03  .283797535592E-08  .129212381254E+01
      .870972871780E-05  .289389397949E-03  .808574259281E-05  .544060868645E+04
      .370200000000E+06  .447034835815E-07  .809249009224E+00 -.931322574615E-08
      .989253141084E+00  .180093750000E+03  .126442952251E+01 -.566345019115E-08
      .547879964257E-09  .100000000000E+01  .212300000000E+04  .000000000000E+00
      .327670000000E+05  .000000000000E+00 -.155996531248E-07 -.167638063431E-07
      .371620000000E+06  .000000000000E+00
E12 2020  9 17  7  0  0  .560149690136E-02 -.188578042071E-10  .000000000000E+00
      .106000000000E+03  .185375000000E+03  .291047837596E-08  .292913477840E+01
      .863149762154E-05  .137728173286E-03  .737048685551E-05  .544060670090E+04
      .370800000000E+06  .614672899246E-07  .809234820381E+00  .242143869400E-07
      .989267107563E+00  .193218750000E+03  .506674189539E+00 -.568309386653E-08
      .516807241382E-09  .100000000000E+01  .212300000000E+04  .000000000000E+00
      .327670000000E+05  .000000000000E+00 -.128056854010E-07 -.128056854010E-07
      .371620000000E+06  .000000000000E+00
E 1 2020  9 17  7  0  0 -.942485406995E-03 -.794386778580E-11  .000000000000E+00
      .106000000000E+03 -.598125000000E+02  .354193325002E-08  .172919039225E+01
     -.276602804661E-05  .284910085611E-03  .258348882198E-05  .544059954834E+04
      .370800000000E+06 -.651925802231E-07 -.127262820989E+01 -.391155481339E-07
      .980763053586E+00  .299218750000E+03 -.172094682254E+01 -.598489215192E-08
     -.316084594764E-09  .200000000000E+01  .212300000000E+04  .000000000000E+00
      .327670000000E+05  .000000000000E+00 -.186264514923E-08  .000000000000E+00
      .371643000000E+06  .000000000000E+00
E 4 2020  9 17  7  0  0 -.608761794865E-03 -.771649411035E-11  .000000000000E+00
      .106000000000E+03 -.106875000000E+03  .281761736507E-08  .195012938285E+01
     -.500865280628E-05  .107733532786E-03  .152308493853E-04  .544063886070E+04
      .370800000000E+06 -.186264514923E-07  .291356622280E+01 -.540167093277E-07
      .954670638367E+00  .112187500000E+02 -.634916353283E+00 -.543308345259E-08
     -.287154818294E-09  .200000000000E+01  .212300000000E+04  .000000000000E+00
      .327670000000E+05  .000000000000E+00 -.512227416039E-08  .000000000000E+00
      .371643000000E+06  .000000000000E+00
